BEIDOU-2 IGSO-1 (C06)   
1 36828U 10036A   24285.63723772 -.00000114  00000+0  00000+0 0  9990
2 36828  54.2542 168.5167 0040838 203.3275 342.3592  1.00248585 52053
BEIDOU-2 G4 (C04)       
1 37210U 10057A   24293.57674230 -.00000114  00000+0  00000+0 0  9995
2 37210   2.1444  69.8702 0008939 170.2512 156.0931  1.00269959 51214
BEIDOU-2 IGSO-2 (C07)   
1 37256U 10068A   24292.85895293 -.00000211  00000+0  00000+0 0  9999
2 37256  48.6543 279.3073 0039724 218.0489 307.0825  1.00262808 50707
BEIDOU-2 IGSO-3 (C08)   
1 37384U 11013A   24289.77720606 -.00000192  00000+0  00000+0 0  9992
2 37384  61.5353  45.9541 0032448 176.7761 189.7733  1.00277950 49556
BEIDOU-2 IGSO-4 (C09)   
1 37763U 11038A   24292.64174860 -.00000039  00000+0  00000+0 0  9995
2 37763  54.5598 171.0901 0129260 228.8651 314.4471  1.00281935 48561
BEIDOU-2 IGSO-5 (C10)   
1 37948U 11073A   24293.42757644 -.00000173  00000+0  00000+0 0  9992
2 37948  48.7879 278.9945 0102523 221.8969 136.9712  1.00264159 47053
BEIDOU-2 G5 (C05)       
1 38091U 12008A   24293.11716028  .00000056  00000+0  00000+0 0  9997
2 38091   2.0630  70.6721 0008840 218.0275 200.3297  1.00267622 46292
BEIDOU-2 M3 (C11)       
1 38250U 12018A   24290.82122616 -.00000054  00000+0  00000+0 0  9993
2 38250  56.2523 325.2896 0025252 263.5350  96.2393  1.86233413 84968
BEIDOU-2 M4 (C12)       
1 38251U 12018B   24293.43614325 -.00000071  00000+0  00000+0 0  9996
2 38251  56.1562 324.4644 0016191 264.6073  95.2578  1.86231853 84666
BEIDOU-2 M6 (C14)       
1 38775U 12050B   24292.07178206  .00000003  00000+0  00000+0 0  9999
2 38775  56.0155  83.0590 0010516 347.1610  12.8051  1.86230943 82355
BEIDOU-2 G6 (C02)       
1 38953U 12059A   24293.39025347 -.00000177  00000+0  00000+0 0  9992
2 38953   2.8741  79.4673 0006255 298.3890 235.0576  1.00272364 43836
BEIDOU-3S IGSO-1S (C31) 
1 40549U 15019A   24292.48353813 -.00000181  00000+0  00000+0 0  9991
2 40549  50.3438 302.7294 0036382 198.4401 157.3007  1.00277312 34983
BEIDOU-3S M2S (C58)     
1 40748U 15037A   24293.09929328 -.00000069  00000+0  00000+0 0  9995
2 40748  55.3848 322.8185 0013156 253.6486 106.2552  1.86229060 62831
BEIDOU-3S M1S (C57)     
1 40749U 15037B   24292.83527655 -.00000067  00000+0  00000+0 0  9992
2 40749  55.3877 322.8140 0003696 314.7650  45.2548  1.86227464 62838
BEIDOU-3S IGSO-2S (C56) 
1 40938U 15053A   24292.82528958 -.00000158  00000+0  00000+0 0  9997
2 40938  50.1698 265.9563 0052789 189.8319 325.7303  1.00277678 33266
BEIDOU-2 IGSO-6 (C13)   
1 41434U 16021A   24292.78755052 -.00000176  00000+0  00000+0 0  9997
2 41434  59.3665  44.1100 0053869 222.9322 139.2954  1.00290084 31398
BEIDOU-2 G7 (C03)       
1 41586U 16037A   24293.31854990 -.00000355  00000+0  00000+0 0  9992
2 41586   1.6748  66.4702 0006671 348.7274 198.3293  1.00272528   813
BEIDOU-3 M1 (C19)       
1 43001U 17069A   24292.91157879 -.00000003  00000+0  00000+0 0  9999
2 43001  56.1664  83.1432 0007151 303.3994  56.5217  1.86231118 47316
BEIDOU-3 M2 (C20)       
1 43002U 17069B   24292.84910558 -.00000003  00000+0  00000+0 0  9993
2 43002  56.1653  83.1817 0005290 340.5884  19.3811  1.86230845 47307
BEIDOU-3 M7 (C27)       
1 43107U 18003A   24292.06020479 -.00000065  00000+0  00000+0 0  9994
2 43107  54.8441 323.3909 0002230  78.4113 281.6671  1.86232332 46059
BEIDOU-3 M8 (C28)       
1 43108U 18003B   24292.00166379 -.00000064  00000+0  00000+0 0  9998
2 43108  54.8370 323.3779 0005153 257.6447 102.3512  1.86230784 46056
BEIDOU-3 M4 (C22)       
1 43207U 18018A   24293.51664571 -.00000006  00000+0  00000+0 0  9994
2 43207  56.1255  83.2079 0004374  29.6013 330.4114  1.86231047 45467
BEIDOU-3 M3 (C21)       
1 43208U 18018B   24292.50937327  .00000000  00000+0  00000+0 0  9998
2 43208  56.1243  83.2458 0004941 323.1962  36.7610  1.86231068 45449
BEIDOU-3 M9 (C29)       
1 43245U 18029A   24293.26650844 -.00000069  00000+0  00000+0 0  9997
2 43245  54.7223 321.0445 0002366 249.3296 110.6901  1.86232399 44610
BEIDOU-3 M10 (C30)      
1 43246U 18029B   24293.19599952 -.00000068  00000+0  00000+0 0  9991
2 43246  54.7200 321.0749 0003114 342.5642  17.4706  1.86232760 44592
BEIDOU-2 IGSO-7 (C16)   
1 43539U 18057A   24293.32629667 -.00000094  00000+0  00000+0 0  9998
2 43539  55.1471 168.3076 0078035 232.7763 218.0397  1.00273792 23065
BEIDOU-3 M5 (C23)       
1 43581U 18062A   24291.27308155  .00000020  00000+0  00000+0 0  9997
2 43581  54.1188 202.9795 0003299 304.2685  55.7370  1.86228485 42316
BEIDOU-3 M6 (C24)       
1 43582U 18062B   24292.21220832  .00000024  00000+0  00000+0 0  9992
2 43582  54.1183 202.9369 0006075  24.9840 335.0880  1.86229616 42332
BEIDOU-3 M12 (C26)      
1 43602U 18067A   24293.21956281  .00000024  00000+0  00000+0 0  9995
2 43602  54.2095 201.5954 0008058  28.3312 331.7631  1.86227581 41838
BEIDOU-3 M11 (C25)      
1 43603U 18067B   24292.27902155  .00000025  00000+0  00000+0 0  9993
2 43603  54.2069 201.5922 0004752  19.4835 340.5807  1.86227080 41841
BEIDOU-3 M13 (C32)      
1 43622U 18072A   24292.77732464 -.00000003  00000+0  00000+0 0  9996
2 43622  56.0963  82.7605 0003972 298.7608  61.1889  1.86231142 41362
BEIDOU-3 M14 (C33)      
1 43623U 18072B   24291.03194126  .00000014  00000+0  00000+0 0  9993
2 43623  56.0965  82.8120 0002390   0.9068 359.0926  1.86231115 41321
BEIDOU-3 M16 (C35)      
1 43647U 18078A   24293.34178150 -.00000069  00000+0  00000+0 0  9991
2 43647  54.6190 321.1305 0006083   8.3751 351.6800  1.86232134 40879
BEIDOU-3 M15 (C34)      
1 43648U 18078B   24292.39701319 -.00000065  00000+0  00000+0 0  9991
2 43648  54.6155 321.1658 0002723   5.8308 354.2215  1.86232096 40875
BEIDOU-3 G1 (C59)       
1 43683U 18085A   24293.38103831 -.00000278  00000+0  00000+0 0  9999
2 43683   2.4948 105.0627 0002039  45.9472 154.6037  1.00271057 21988
BEIDOU-3 M17 (C36)      
1 43706U 18093A   24293.08602827  .00000023  00000+0  00000+0 0  9997
2 43706  54.2016 202.8652 0008192 292.4274  67.5332  1.86228186 40254
BEIDOU-3 M18 (C37)      
1 43707U 18093B   24292.41339929  .00000024  00000+0  00000+0 0  9995
2 43707  54.2025 202.8800 0007150 325.5934  34.4043  1.86229718 40236
BEIDOU-3 IGSO-1 (C38)   
1 44204U 19023A   24292.68899663 -.00000233  00000+0  00000+0 0  9990
2 44204  57.8287  43.9370 0024627 207.7200 142.8688  1.00263923  1125
BEIDOU-2 G8 (C01)       
1 44231U 19027A   24293.56343030 -.00000250  00000+0  00000+0 0  9993
2 44231   1.7830  74.5175 0004424 188.4242 112.9229  1.00268216 20001
BEIDOU-3 IGSO-2 (C39)   
1 44337U 19035A   24293.32605779 -.00000092  00000+0  00000+0 0  9998
2 44337  55.1822 164.1817 0034727 201.6725 257.6700  1.00258299 19597
BEIDOU-3 M24 (C46)      
1 44542U 19061A   24293.02025168  .00000024  00000+0  00000+0 0  9994
2 44542  54.4292 203.1785 0008715   3.2080 356.8439  1.86229344 34506
BEIDOU-3 M23 (C45)      
1 44543U 19061B   24293.35725727  .00000022  00000+0  00000+0 0  9997
2 44543  54.4278 203.1357 0005524 353.4490 145.1222  1.86229415 34515
BEIDOU-3 IGSO-3 (C40)   
1 44709U 19073A   24292.39161824 -.00000189  00000+0  00000+0 0  9994
2 44709  55.8435 287.4178 0040977 191.1880 168.6806  1.00264841 18378
BEIDOU-3 M22 (C44)      
1 44793U 19078A   24293.40195805 -.00000070  00000+0  00000+0 0  9990
2 44793  54.4665 321.0453 0004701  13.5426 346.5145  1.86232002 33367
BEIDOU-3 M21 (C43)      
1 44794U 19078B   24291.92059958 -.00000062  00000+0  00000+0 0  9995
2 44794  54.4411 321.0703 0002881 355.1993   4.8489  1.86232462 33349
BEIDOU-3 M19 (C41)      
1 44864U 19090A   24291.91718032  .00000004  00000+0  00000+0 0  9996
2 44864  56.0299  82.9533 0015549 279.3315 270.7028  1.86231368 32923
BEIDOU-3 M20 (C42)      
1 44865U 19090B   24292.53486243 -.00000001  00000+0  00000+0 0  9990
2 44865  56.0322  82.9661 0013008 294.1804  39.6782  1.86231319 32913
BEIDOU-3 G2 (C60)       
1 45344U 20017A   24293.39077431 -.00000143  00000+0  00000+0 0  9991
2 45344   2.4834  33.9966 0004181 199.9541  15.1411  1.00271635 17186
BEIDOU-3 G3 (C61)       
1 45807U 20040A   24293.31854990 -.00000355  00000+0  00000+0 0  9991
2 45807   1.0142  53.9808 0003019 288.4385 271.0400  1.00265878 15993
BEIDOU-3 G4 (C62)       
1 56564U 23066A   24293.46638330 -.00000115  00000+0  00000+0 0  9992
2 56564   1.8176 288.7176 0005514 246.3430 181.3007  1.00272086  5323
BEIDOU-3 M28 (C50)      
1 58654U 23207A   24292.54040251 -.00000003  00000+0  00000+0 0  9994
2 58654  55.2154  82.8629 0000903 206.1419 153.8448  1.86232016  5548
BEIDOU-3 M26 (C48)      
1 58655U 23207B   24290.72878800  .00000016  00000+0  00000+0 0  9995
2 58655  55.2157  82.9100 0002318 215.6483 144.3380  1.86231549  5499
